STARLINK-35395          
1 66014U 25232K   25308.16668980 -.01683482  00000+0 -30563-1 0  9994
2 66014  53.1598 329.5683 0001074  75.9803 175.4071 15.52152629  3343
STARLINK-34622          
1 66015U 25232L   25308.16668980 -.01684816  00000+0 -30588-1 0  9994
2 66015  53.1593 329.5525 0001049  83.0655 175.9880 15.52154778  3240
STARLINK-35243          
1 66016U 25232M   25308.16668980 -.01720717  00000+0 -31300-1 0  9999
2 66016  53.1591 329.5555 0001013  88.9435 168.1912 15.52169998  3355
STARLINK-35398          
1 66017U 25232N   25308.16668980 -.01680797  00000+0 -30508-1 0  9992
2 66017  53.1595 329.5451 0001090  76.6333 186.2540 15.52153113  3272
STARLINK-35376          
1 66018U 25232P   25308.16668980 -.01686373  00000+0 -30618-1 0  9991
2 66018  53.1594 329.5482 0001027  82.9686 178.0015 15.52156106  3357
STARLINK-35382          
1 66019U 25232Q   25308.16668980 -.01721881  00000+0 -31326-1 0  9993
2 66019  53.1593 329.5590 0000968  82.6389 172.5795 15.52168556  3353
STARLINK-35430          
1 66020U 25232R   25308.16668980 -.01700356  00000+0 -30894-1 0  9998
2 66020  53.1595 329.5365 0000943  80.8109 185.9078 15.52163407  3341
STARLINK-35432          
1 66021U 25232S   25308.16668980 -.01689251  00000+0 -30674-1 0  9995
2 66021  53.1594 329.5405 0000846  80.5553 184.2475 15.52159493  3273
STARLINK-35340          
1 66022U 25232T   25308.16668980 -.01698692  00000+0 -30863-1 0  9995
2 66022  53.1596 329.5325 0001126  82.1312 186.5054 15.52159977  3343
STARLINK-35394          
1 66023U 25232U   25308.16668980 -.01702570  00000+0 -30941-1 0  9994
2 66023  53.1596 329.5281 0000970  77.3241 193.2290 15.52161568  3344
STARLINK-35410          
1 66024U 25232V   25308.16668980 -.01707182  00000+0 -31033-1 0  9992
2 66024  53.1596 329.5199 0001028  86.2091 188.1782 15.52163146  3343
STARLINK-35280          
1 66025U 25232W   25308.16668980 -.01700061  00000+0 -30892-1 0  9994
2 66025  53.1597 329.5238 0000960  76.5071 195.9639 15.52159692  3284
