CCSDS_OMM_VERS = 2.0
CREATION_DATE  = 
ORIGINATOR     = 

OBJECT_NAME    = STARLINK-35395
OBJECT_ID      = 2025-232K
CENTER_NAME    = EARTH
REF_FRAME      = TEME
TIME_SYSTEM    = UTC
MEAN_ELEMENT_THEORY = SGP/SGP4

EPOCH          = 2025-11-04T04:00:01.998720
MEAN_MOTION    = 15.52152629
ECCENTRICITY   = .0001074
INCLINATION    = 53.1598
RA_OF_ASC_NODE = 329.5683
ARG_OF_PERICENTER = 75.9803
MEAN_ANOMALY   = 175.4071

EPHEMERIS_TYPE = 0
CLASSIFICATION_TYPE = U
NORAD_CAT_ID   = 66014
ELEMENT_SET_NO = 999
REV_AT_EPOCH   = 334
BSTAR          = -.30563E-1
MEAN_MOTION_DOT = -.1683482E-1
MEAN_MOTION_DDOT = 0

CCSDS_OMM_VERS = 2.0
CREATION_DATE  = 
ORIGINATOR     = 

OBJECT_NAME    = STARLINK-34622
OBJECT_ID      = 2025-232L
CENTER_NAME    = EARTH
REF_FRAME      = TEME
TIME_SYSTEM    = UTC
MEAN_ELEMENT_THEORY = SGP/SGP4

EPOCH          = 2025-11-04T04:00:01.998720
MEAN_MOTION    = 15.52154778
ECCENTRICITY   = .0001049
INCLINATION    = 53.1593
RA_OF_ASC_NODE = 329.5525
ARG_OF_PERICENTER = 83.0655
MEAN_ANOMALY   = 175.9880

EPHEMERIS_TYPE = 0
CLASSIFICATION_TYPE = U
NORAD_CAT_ID   = 66015
ELEMENT_SET_NO = 999
REV_AT_EPOCH   = 324
BSTAR          = -.30588E-1
MEAN_MOTION_DOT = -.1684816E-1
MEAN_MOTION_DDOT = 0

CCSDS_OMM_VERS = 2.0
CREATION_DATE  = 
ORIGINATOR     = 

OBJECT_NAME    = STARLINK-35243
OBJECT_ID      = 2025-232M
CENTER_NAME    = EARTH
REF_FRAME      = TEME
TIME_SYSTEM    = UTC
MEAN_ELEMENT_THEORY = SGP/SGP4

EPOCH          = 2025-11-04T04:00:01.998720
MEAN_MOTION    = 15.52169998
ECCENTRICITY   = .0001013
INCLINATION    = 53.1591
RA_OF_ASC_NODE = 329.5555
ARG_OF_PERICENTER = 88.9435
MEAN_ANOMALY   = 168.1912

EPHEMERIS_TYPE = 0
CLASSIFICATION_TYPE = U
NORAD_CAT_ID   = 66016
ELEMENT_SET_NO = 999
REV_AT_EPOCH   = 335
BSTAR          = -.313E-1
MEAN_MOTION_DOT = -.1720717E-1
MEAN_MOTION_DDOT = 0

CCSDS_OMM_VERS = 2.0
CREATION_DATE  = 
ORIGINATOR     = 

OBJECT_NAME    = STARLINK-35398
OBJECT_ID      = 2025-232N
CENTER_NAME    = EARTH
REF_FRAME      = TEME
TIME_SYSTEM    = UTC
MEAN_ELEMENT_THEORY = SGP/SGP4

EPOCH          = 2025-11-04T04:00:01.998720
MEAN_MOTION    = 15.52153113
ECCENTRICITY   = .000109
INCLINATION    = 53.1595
RA_OF_ASC_NODE = 329.5451
ARG_OF_PERICENTER = 76.6333
MEAN_ANOMALY   = 186.2540

EPHEMERIS_TYPE = 0
CLASSIFICATION_TYPE = U
NORAD_CAT_ID   = 66017
ELEMENT_SET_NO = 999
REV_AT_EPOCH   = 327
BSTAR          = -.30508E-1
MEAN_MOTION_DOT = -.1680797E-1
MEAN_MOTION_DDOT = 0

CCSDS_OMM_VERS = 2.0
CREATION_DATE  = 
ORIGINATOR     = 

OBJECT_NAME    = STARLINK-35376
OBJECT_ID      = 2025-232P
CENTER_NAME    = EARTH
REF_FRAME      = TEME
TIME_SYSTEM    = UTC
MEAN_ELEMENT_THEORY = SGP/SGP4

EPOCH          = 2025-11-04T04:00:01.998720
MEAN_MOTION    = 15.52156106
ECCENTRICITY   = .0001027
INCLINATION    = 53.1594
RA_OF_ASC_NODE = 329.5482
ARG_OF_PERICENTER = 82.9686
MEAN_ANOMALY   = 178.0015

EPHEMERIS_TYPE = 0
CLASSIFICATION_TYPE = U
NORAD_CAT_ID   = 66018
ELEMENT_SET_NO = 999
REV_AT_EPOCH   = 335
BSTAR          = -.30618E-1
MEAN_MOTION_DOT = -.1686373E-1
MEAN_MOTION_DDOT = 0

CCSDS_OMM_VERS = 2.0
CREATION_DATE  = 
ORIGINATOR     = 

OBJECT_NAME    = STARLINK-35382
OBJECT_ID      = 2025-232Q
CENTER_NAME    = EARTH
REF_FRAME      = TEME
TIME_SYSTEM    = UTC
MEAN_ELEMENT_THEORY = SGP/SGP4

EPOCH          = 2025-11-04T04:00:01.998720
MEAN_MOTION    = 15.52168556
ECCENTRICITY   = .0000968
INCLINATION    = 53.1593
RA_OF_ASC_NODE = 329.5590
ARG_OF_PERICENTER = 82.6389
MEAN_ANOMALY   = 172.5795

EPHEMERIS_TYPE = 0
CLASSIFICATION_TYPE = U
NORAD_CAT_ID   = 66019
ELEMENT_SET_NO = 999
REV_AT_EPOCH   = 335
BSTAR          = -.31326E-1
MEAN_MOTION_DOT = -.1721881E-1
MEAN_MOTION_DDOT = 0

CCSDS_OMM_VERS = 2.0
CREATION_DATE  = 
ORIGINATOR     = 

OBJECT_NAME    = STARLINK-35430
OBJECT_ID      = 2025-232R
CENTER_NAME    = EARTH
REF_FRAME      = TEME
TIME_SYSTEM    = UTC
MEAN_ELEMENT_THEORY = SGP/SGP4

EPOCH          = 2025-11-04T04:00:01.998720
MEAN_MOTION    = 15.52163407
ECCENTRICITY   = .0000943
INCLINATION    = 53.1595
RA_OF_ASC_NODE = 329.5365
ARG_OF_PERICENTER = 80.8109
MEAN_ANOMALY   = 185.9078

EPHEMERIS_TYPE = 0
CLASSIFICATION_TYPE = U
NORAD_CAT_ID   = 66020
ELEMENT_SET_NO = 999
REV_AT_EPOCH   = 334
BSTAR          = -.30894E-1
MEAN_MOTION_DOT = -.1700356E-1
MEAN_MOTION_DDOT = 0

CCSDS_OMM_VERS = 2.0
CREATION_DATE  = 
ORIGINATOR     = 

OBJECT_NAME    = STARLINK-35432
OBJECT_ID      = 2025-232S
CENTER_NAME    = EARTH
REF_FRAME      = TEME
TIME_SYSTEM    = UTC
MEAN_ELEMENT_THEORY = SGP/SGP4

EPOCH          = 2025-11-04T04:00:01.998720
MEAN_MOTION    = 15.52159493
ECCENTRICITY   = .0000846
INCLINATION    = 53.1594
RA_OF_ASC_NODE = 329.5405
ARG_OF_PERICENTER = 80.5553
MEAN_ANOMALY   = 184.2475

EPHEMERIS_TYPE = 0
CLASSIFICATION_TYPE = U
NORAD_CAT_ID   = 66021
ELEMENT_SET_NO = 999
REV_AT_EPOCH   = 327
BSTAR          = -.30674E-1
MEAN_MOTION_DOT = -.1689251E-1
MEAN_MOTION_DDOT = 0

CCSDS_OMM_VERS = 2.0
CREATION_DATE  = 
ORIGINATOR     = 

OBJECT_NAME    = STARLINK-35340
OBJECT_ID      = 2025-232T
CENTER_NAME    = EARTH
REF_FRAME      = TEME
TIME_SYSTEM    = UTC
MEAN_ELEMENT_THEORY = SGP/SGP4

EPOCH          = 2025-11-04T04:00:01.998720
MEAN_MOTION    = 15.52159977
ECCENTRICITY   = .0001126
INCLINATION    = 53.1596
RA_OF_ASC_NODE = 329.5325
ARG_OF_PERICENTER = 82.1312
MEAN_ANOMALY   = 186.5054

EPHEMERIS_TYPE = 0
CLASSIFICATION_TYPE = U
NORAD_CAT_ID   = 66022
ELEMENT_SET_NO = 999
REV_AT_EPOCH   = 334
BSTAR          = -.30863E-1
MEAN_MOTION_DOT = -.1698692E-1
MEAN_MOTION_DDOT = 0

CCSDS_OMM_VERS = 2.0
CREATION_DATE  = 
ORIGINATOR     = 

OBJECT_NAME    = STARLINK-35394
OBJECT_ID      = 2025-232U
CENTER_NAME    = EARTH
REF_FRAME      = TEME
TIME_SYSTEM    = UTC
MEAN_ELEMENT_THEORY = SGP/SGP4

EPOCH          = 2025-11-04T04:00:01.998720
MEAN_MOTION    = 15.52161568
ECCENTRICITY   = .000097
INCLINATION    = 53.1596
RA_OF_ASC_NODE = 329.5281
ARG_OF_PERICENTER = 77.3241
MEAN_ANOMALY   = 193.2290

EPHEMERIS_TYPE = 0
CLASSIFICATION_TYPE = U
NORAD_CAT_ID   = 66023
ELEMENT_SET_NO = 999
REV_AT_EPOCH   = 334
BSTAR          = -.30941E-1
MEAN_MOTION_DOT = -.170257E-1
MEAN_MOTION_DDOT = 0

CCSDS_OMM_VERS = 2.0
CREATION_DATE  = 
ORIGINATOR     = 

OBJECT_NAME    = STARLINK-35410
OBJECT_ID      = 2025-232V
CENTER_NAME    = EARTH
REF_FRAME      = TEME
TIME_SYSTEM    = UTC
MEAN_ELEMENT_THEORY = SGP/SGP4

EPOCH          = 2025-11-04T04:00:01.998720
MEAN_MOTION    = 15.52163146
ECCENTRICITY   = .0001028
INCLINATION    = 53.1596
RA_OF_ASC_NODE = 329.5199
ARG_OF_PERICENTER = 86.2091
MEAN_ANOMALY   = 188.1782

EPHEMERIS_TYPE = 0
CLASSIFICATION_TYPE = U
NORAD_CAT_ID   = 66024
ELEMENT_SET_NO = 999
REV_AT_EPOCH   = 334
BSTAR          = -.31033E-1
MEAN_MOTION_DOT = -.1707182E-1
MEAN_MOTION_DDOT = 0

CCSDS_OMM_VERS = 2.0
CREATION_DATE  = 
ORIGINATOR     = 

OBJECT_NAME    = STARLINK-35280
OBJECT_ID      = 2025-232W
CENTER_NAME    = EARTH
REF_FRAME      = TEME
TIME_SYSTEM    = UTC
MEAN_ELEMENT_THEORY = SGP/SGP4

EPOCH          = 2025-11-04T04:00:01.998720
MEAN_MOTION    = 15.52159692
ECCENTRICITY   = .000096
INCLINATION    = 53.1597
RA_OF_ASC_NODE = 329.5238
ARG_OF_PERICENTER = 76.5071
MEAN_ANOMALY   = 195.9639

EPHEMERIS_TYPE = 0
CLASSIFICATION_TYPE = U
NORAD_CAT_ID   = 66025
ELEMENT_SET_NO = 999
REV_AT_EPOCH   = 328
BSTAR          = -.30892E-1
MEAN_MOTION_DOT = -.1700061E-1
MEAN_MOTION_DDOT = 0

